{
  "type": "FeatureCollection",
  "features": [
    {
      "type": "Feature",
      "properties": {
        "norad_id": 37869,
        "name": "COSMOS 2475 (743)",
        "group": "gnss",
        "lat": NaN,
        "lon": NaN,
        "alt_km": NaN,
        "timestamp": "2025-12-01T02:46:59.658775+00:00",
        "meta": {
          "OBJECT_NAME": "COSMOS 2475 (743)",
          "OBJECT_ID": "2011-064C",
          "EPOCH": "2025-11-30T07:33:40.504032",
          "MEAN_MOTION": 2.13101381,
          "ECCENTRICITY": 0.00259829,
          "INCLINATION": 65.1691,
          "RA_OF_ASC_NODE": 79.6892,
          "ARG_OF_PERICENTER": 248.134,
          "MEAN_ANOMALY": 124.7491,
          "EPHEMERIS_TYPE": 0,
          "CLASSIFICATION_TYPE": "U",
          "NORAD_CAT_ID": 37869,
          "ELEMENT_SET_NO": 999,
          "REV_AT_EPOCH": 10953,
          "BSTAR": 0,
          "MEAN_MOTION_DOT": -4e-08,
          "MEAN_MOTION_DDOT": 0
        }
      },
      "geometry": {
        "type": "Point",
        "coordinates": [
          NaN,
          NaN
        ]
      }
    },
    {
      "type": "Feature",
      "properties": {
        "norad_id": 37948,
        "name": "BEIDOU-2 IGSO-5 (C10)",
        "group": "gnss",
        "lat": NaN,
        "lon": NaN,
        "alt_km": NaN,
        "timestamp": "2025-12-01T02:46:59.658793+00:00",
        "meta": {
          "OBJECT_NAME": "BEIDOU-2 IGSO-5 (C10)",
          "OBJECT_ID": "2011-073A",
          "EPOCH": "2025-11-30T19:25:00.979968",
          "MEAN_MOTION": 1.00293171,
          "ECCENTRICITY": 0.0110907,
          "INCLINATION": 48.0444,
          "RA_OF_ASC_NODE": 274.0065,
          "ARG_OF_PERICENTER": 222.268,
          "MEAN_ANOMALY": 317.1379,
          "EPHEMERIS_TYPE": 0,
          "CLASSIFICATION_TYPE": "U",
          "NORAD_CAT_ID": 37948,
          "ELEMENT_SET_NO": 999,
          "REV_AT_EPOCH": 5114,
          "BSTAR": 0,
          "MEAN_MOTION_DOT": -1.72e-06,
          "MEAN_MOTION_DDOT": 0
        }
      },
      "geometry": {
        "type": "Point",
        "coordinates": [
          NaN,
          NaN
        ]
      }
    },
    {
      "type": "Feature",
      "properties": {
        "norad_id": 37951,
        "name": "LUCH 5A (SDCM/PRN 140)",
        "group": "gnss",
        "lat": NaN,
        "lon": NaN,
        "alt_km": NaN,
        "timestamp": "2025-12-01T02:46:59.658811+00:00",
        "meta": {
          "OBJECT_NAME": "LUCH 5A (SDCM/PRN 140)",
          "OBJECT_ID": "2011-074B",
          "EPOCH": "2025-11-30T14:38:09.973824",
          "MEAN_MOTION": 1.0027323,
          "ECCENTRICITY": 0.0005783,
          "INCLINATION": 8.2465,
          "RA_OF_ASC_NODE": 76.7646,
          "ARG_OF_PERICENTER": 171.9084,
          "MEAN_ANOMALY": 207.5733,
          "EPHEMERIS_TYPE": 0,
          "CLASSIFICATION_TYPE": "U",
          "NORAD_CAT_ID": 37951,
          "ELEMENT_SET_NO": 999,
          "REV_AT_EPOCH": 5106,
          "BSTAR": 0,
          "MEAN_MOTION_DOT": -2.8e-07,
          "MEAN_MOTION_DDOT": 0
        }
      },
      "geometry": {
        "type": "Point",
        "coordinates": [
          NaN,
          NaN
        ]
      }
    },
    {
      "type": "Feature",
      "properties": {
        "norad_id": 38091,
        "name": "BEIDOU-2 G5 (C05)",
        "group": "gnss",
        "lat": NaN,
        "lon": NaN,
        "alt_km": NaN,
        "timestamp": "2025-12-01T02:46:59.658830+00:00",
        "meta": {
          "OBJECT_NAME": "BEIDOU-2 G5 (C05)",
          "OBJECT_ID": "2012-008A",
          "EPOCH": "2025-11-30T20:58:14.552256",
          "MEAN_MOTION": 1.00271693,
          "ECCENTRICITY": 0.00121,
          "INCLINATION": 3.077,
          "RA_OF_ASC_NODE": 70.7417,
          "ARG_OF_PERICENTER": 225.2694,
          "MEAN_ANOMALY": 147.2486,
          "EPHEMERIS_TYPE": 0,
          "CLASSIFICATION_TYPE": "U",
          "NORAD_CAT_ID": 38091,
          "ELEMENT_SET_NO": 999,
          "REV_AT_EPOCH": 5038,
          "BSTAR": 0,
          "MEAN_MOTION_DOT": 7.9e-07,
          "MEAN_MOTION_DDOT": 0
        }
      },
      "geometry": {
        "type": "Point",
        "coordinates": [
          NaN,
          NaN
        ]
      }
    },
    {
      "type": "Feature",
      "properties": {
        "norad_id": 38250,
        "name": "BEIDOU-2 M3 (C11)",
        "group": "gnss",
        "lat": NaN,
        "lon": NaN,
        "alt_km": NaN,
        "timestamp": "2025-12-01T02:46:59.658850+00:00",
        "meta": {
          "OBJECT_NAME": "BEIDOU-2 M3 (C11)",
          "OBJECT_ID": "2012-018A",
          "EPOCH": "2025-11-30T12:20:22.153056",
          "MEAN_MOTION": 1.86229735,
          "ECCENTRICITY": 0.002455,
          "INCLINATION": 55.9307,
          "RA_OF_ASC_NODE": 311.5688,
          "ARG_OF_PERICENTER": 273.3237,
          "MEAN_ANOMALY": 86.3938,
          "EPHEMERIS_TYPE": 0,
          "CLASSIFICATION_TYPE": "U",
          "NORAD_CAT_ID": 38250,
          "ELEMENT_SET_NO": 999,
          "REV_AT_EPOCH": 9224,
          "BSTAR": 0,
          "MEAN_MOTION_DOT": -5e-07,
          "MEAN_MOTION_DDOT": 0
        }
      },
      "geometry": {
        "type": "Point",
        "coordinates": [
          NaN,
          NaN
        ]
      }
    },
    {
      "type": "Feature",
      "properties": {
        "norad_id": 38251,
        "name": "BEIDOU-2 M4 (C12)",
        "group": "gnss",
        "lat": NaN,
        "lon": NaN,
        "alt_km": NaN,
        "timestamp": "2025-12-01T02:46:59.658867+00:00",
        "meta": {
          "OBJECT_NAME": "BEIDOU-2 M4 (C12)",
          "OBJECT_ID": "2012-018B",
          "EPOCH": "2025-11-30T10:42:30.206880",
          "MEAN_MOTION": 1.86229429,
          "ECCENTRICITY": 0.0015683,
          "INCLINATION": 55.8321,
          "RA_OF_ASC_NODE": 310.801,
          "ARG_OF_PERICENTER": 276.2747,
          "MEAN_ANOMALY": 83.5448,
          "EPHEMERIS_TYPE": 0,
          "CLASSIFICATION_TYPE": "U",
          "NORAD_CAT_ID": 38251,
          "ELEMENT_SET_NO": 999,
          "REV_AT_EPOCH": 9224,
          "BSTAR": 0,
          "MEAN_MOTION_DOT": -5e-07,
          "MEAN_MOTION_DDOT": 0
        }
      },
      "geometry": {
        "type": "Point",
        "coordinates": [
          NaN,
          NaN
        ]
      }
    },
    {
      "type": "Feature",
      "properties": {
        "norad_id": 38652,
        "name": "SES-5 (EGNOS/PRN 136)",
        "group": "gnss",
        "lat": NaN,
        "lon": NaN,
        "alt_km": NaN,
        "timestamp": "2025-12-01T02:46:59.658886+00:00",
        "meta": {
          "OBJECT_NAME": "SES-5 (EGNOS/PRN 136)",
          "OBJECT_ID": "2012-036A",
          "EPOCH": "2025-11-30T15:34:42.060288",
          "MEAN_MOTION": 1.00271359,
          "ECCENTRICITY": 0.0001986,
          "INCLINATION": 0.0591,
          "RA_OF_ASC_NODE": 302.0882,
          "ARG_OF_PERICENTER": 303.658,
          "MEAN_ANOMALY": 62.6928,
          "EPHEMERIS_TYPE": 0,
          "CLASSIFICATION_TYPE": "U",
          "NORAD_CAT_ID": 38652,
          "ELEMENT_SET_NO": 999,
          "REV_AT_EPOCH": 4247,
          "BSTAR": 0,
          "MEAN_MOTION_DOT": 5.6e-07,
          "MEAN_MOTION_DDOT": 0
        }
      },
      "geometry": {
        "type": "Point",
        "coordinates": [
          NaN,
          NaN
        ]
      }
    },
    {
      "type": "Feature",
      "properties": {
        "norad_id": 38775,
        "name": "BEIDOU-2 M6 (C14)",
        "group": "gnss",
        "lat": NaN,
        "lon": NaN,
        "alt_km": NaN,
        "timestamp": "2025-12-01T02:46:59.658913+00:00",
        "meta": {
          "OBJECT_NAME": "BEIDOU-2 M6 (C14)",
          "OBJECT_ID": "2012-050B",
          "EPOCH": "2025-11-30T03:46:17.715072",
          "MEAN_MOTION": 1.86230748,
          "ECCENTRICITY": 0.00108176,
          "INCLINATION": 56.3677,
          "RA_OF_ASC_NODE": 69.4852,
          "ARG_OF_PERICENTER": 346.8684,
          "MEAN_ANOMALY": 13.1099,
          "EPHEMERIS_TYPE": 0,
          "CLASSIFICATION_TYPE": "U",
          "NORAD_CAT_ID": 38775,
          "ELEMENT_SET_NO": 999,
          "REV_AT_EPOCH": 8960,
          "BSTAR": 0,
          "MEAN_MOTION_DOT": -3.1e-07,
          "MEAN_MOTION_DDOT": 0
        }
      },
      "geometry": {
        "type": "Point",
        "coordinates": [
          NaN,
          NaN
        ]
      }
    }
  ]
}